[{"OBJECT_NAME":"STARLINK-4579","OBJECT_ID":"2022-105AF","EPOCH":"2026-03-09T14:56:14.058816","MEAN_MOTION":15.05644759,"ECCENTRICITY":0.0002038,"INCLINATION":97.6033,"RA_OF_ASC_NODE":311.1666,"ARG_OF_PERICENTER":98.0084,"MEAN_ANOMALY":262.1374,"EPHEMERIS_TYPE":0,"CLASSIFICATION_TYPE":"U","NORAD_CAT_ID":53677,"ELEMENT_SET_NO":999,"REV_AT_EPOCH":19329,"BSTAR":0.0002046,"MEAN_MOTION_DOT":2.892e-5,"MEAN_MOTION_DDOT":0},{"OBJECT_NAME":"PEGASUS DEB","OBJECT_ID":"1994-029CY","EPOCH":"2026-03-09T05:13:06.117888","MEAN_MOTION":14.31816092,"ECCENTRICITY":0.03405003,"INCLINATION":81.2891,"RA_OF_ASC_NODE":137.9762,"ARG_OF_PERICENTER":84.6876,"MEAN_ANOMALY":331.5571,"EPHEMERIS_TYPE":0,"CLASSIFICATION_TYPE":"U","NORAD_CAT_ID":24051,"ELEMENT_SET_NO":999,"REV_AT_EPOCH":50238,"BSTAR":0.0015079585,"MEAN_MOTION_DOT":7.708e-5,"MEAN_MOTION_DDOT":0}]
